{
  "type": "FeatureCollection",
  "features": [
    {
      "type": "Feature",
      "properties": {
        "norad_id": 37423,
        "name": "FENGYUN 1C DEB",
        "group": "fengyun-1c-debris",
        "lat": 73.40696889100225,
        "lon": -1.027590290347393,
        "alt_km": 868.512681392619,
        "timestamp": "2025-12-05T19:30:25.854674+00:00",
        "meta_object_name": "FENGYUN 1C DEB",
        "meta_object_id": "1999-025EGR",
        "meta_epoch": "2025-12-02T09:15:11.081088",
        "meta_mean_motion": 14.07508063,
        "meta_eccentricity": 0.00491371,
        "meta_inclination": 98.7874,
        "meta_ra_of_asc_node": 26.9108,
        "meta_arg_of_pericenter": 188.2995,
        "meta_mean_anomaly": 171.7367,
        "meta_ephemeris_type": 0,
        "meta_classification_type": "U",
        "meta_norad_cat_id": 37423,
        "meta_element_set_no": 999,
        "meta_rev_at_epoch": 63464,
        "meta_bstar": 0.00087659335,
        "meta_mean_motion_dot": 1.451e-05,
        "meta_mean_motion_ddot": 0,
        "tle_line1": "1 37423U 99025EGR 25336.38554492  .00001451  00000+0  87659-3 0  9991",
        "tle_line2": "2 37423  98.7874  26.9108 0049137 188.2995 171.7367 14.07508063634645"
      },
      "geometry": {
        "type": "Point",
        "coordinates": [
          -1.027590290347393,
          73.40696889100225
        ]
      }
    },
    {
      "type": "Feature",
      "properties": {
        "norad_id": 37424,
        "name": "FENGYUN 1C DEB",
        "group": "fengyun-1c-debris",
        "lat": 55.628114063113046,
        "lon": 98.95755623344711,
        "alt_km": 884.5123221760377,
        "timestamp": "2025-12-05T19:30:25.854684+00:00",
        "meta_object_name": "FENGYUN 1C DEB",
        "meta_object_id": "1999-025EGS",
        "meta_epoch": "2025-11-26T15:03:16.540128",
        "meta_mean_motion": 14.17748147,
        "meta_eccentricity": 0.02143557,
        "meta_inclination": 97.1976,
        "meta_ra_of_asc_node": 102.1461,
        "meta_arg_of_pericenter": 331.0381,
        "meta_mean_anomaly": 27.9039,
        "meta_ephemeris_type": 0,
        "meta_classification_type": "U",
        "meta_norad_cat_id": 37424,
        "meta_element_set_no": 999,
        "meta_rev_at_epoch": 68345,
        "meta_bstar": 0.00085242664,
        "meta_mean_motion_dot": 2.145e-05,
        "meta_mean_motion_ddot": 0,
        "tle_line1": "1 37424U 99025EGS 25330.62727477  .00002145  00000+0  85243-3 0  9996",
        "tle_line2": "2 37424  97.1976 102.1461 0214355 331.0381  27.9039 14.17748147683455"
      },
      "geometry": {
        "type": "Point",
        "coordinates": [
          98.95755623344711,
          55.628114063113046
        ]
      }
    },
    {
      "type": "Feature",
      "properties": {
        "norad_id": 37427,
        "name": "FENGYUN 1C DEB",
        "group": "fengyun-1c-debris",
        "lat": -74.12717518582045,
        "lon": -91.30063173508935,
        "alt_km": 521.6643672331593,
        "timestamp": "2025-12-05T19:30:25.854695+00:00",
        "meta_object_name": "FENGYUN 1C DEB",
        "meta_object_id": "1999-025EGV",
        "meta_epoch": "2025-11-25T03:26:10.747680",
        "meta_mean_motion": 14.97768919,
        "meta_eccentricity": 0.01887185,
        "meta_inclination": 98.6232,
        "meta_ra_of_asc_node": 109.1733,
        "meta_arg_of_pericenter": 355.7363,
        "meta_mean_anomaly": 4.2239,
        "meta_ephemeris_type": 0,
        "meta_classification_type": "U",
        "meta_norad_cat_id": 37427,
        "meta_element_set_no": 999,
        "meta_rev_at_epoch": 60059,
        "meta_bstar": 0.00046451943,
        "meta_mean_motion_dot": 7.8e-05,
        "meta_mean_motion_ddot": 0,
        "tle_line1": "1 37427U 99025EGV 25329.14317995  .00007800  00000+0  46452-3 0  9996",
        "tle_line2": "2 37427  98.6232 109.1733 0188718 355.7363   4.2239 14.97768919600595"
      },
      "geometry": {
        "type": "Point",
        "coordinates": [
          -91.30063173508935,
          -74.12717518582045
        ]
      }
    },
    {
      "type": "Feature",
      "properties": {
        "norad_id": 37430,
        "name": "FENGYUN 1C DEB",
        "group": "fengyun-1c-debris",
        "lat": 81.0460878148601,
        "lon": -24.46595829194872,
        "alt_km": 774.6065526063248,
        "timestamp": "2025-12-05T19:30:25.854714+00:00",
        "meta_object_name": "FENGYUN 1C DEB",
        "meta_object_id": "1999-025EGY",
        "meta_epoch": "2025-12-05T03:58:16.719456",
        "meta_mean_motion": 14.28846273,
        "meta_eccentricity": 0.001883,
        "meta_inclination": 98.7668,
        "meta_ra_of_asc_node": 53.2332,
        "meta_arg_of_pericenter": 93.5332,
        "meta_mean_anomaly": 266.8003,
        "meta_ephemeris_type": 0,
        "meta_classification_type": "U",
        "meta_norad_cat_id": 37430,
        "meta_element_set_no": 999,
        "meta_rev_at_epoch": 61593,
        "meta_bstar": 0.0038447795,
        "meta_mean_motion_dot": 9.683e-05,
        "meta_mean_motion_ddot": 0,
        "tle_line1": "1 37430U 99025EGY 25339.16547129  .00009683  00000+0  38448-2 0  9993",
        "tle_line2": "2 37430  98.7668  53.2332 0018830  93.5332 266.8003 14.28846273615930"
      },
      "geometry": {
        "type": "Point",
        "coordinates": [
          -24.46595829194872,
          81.0460878148601
        ]
      }
    },
    {
      "type": "Feature",
      "properties": {
        "norad_id": 37432,
        "name": "FENGYUN 1C DEB",
        "group": "fengyun-1c-debris",
        "lat": -81.51773117373145,
        "lon": 68.05692469782059,
        "alt_km": 618.2449627993037,
        "timestamp": "2025-12-05T19:30:25.854726+00:00",
        "meta_object_name": "FENGYUN 1C DEB",
        "meta_object_id": "1999-025EHA",
        "meta_epoch": "2025-12-02T07:37:37.120800",
        "meta_mean_motion": 14.5327938,
        "meta_eccentricity": 0.01827667,
        "meta_inclination": 98.1849,
        "meta_ra_of_asc_node": 349.8265,
        "meta_arg_of_pericenter": 320.333,
        "meta_mean_anomaly": 38.4615,
        "meta_ephemeris_type": 0,
        "meta_classification_type": "U",
        "meta_norad_cat_id": 37432,
        "meta_element_set_no": 999,
        "meta_rev_at_epoch": 8225,
        "meta_bstar": 0.0011757415,
        "meta_mean_motion_dot": 6.037e-05,
        "meta_mean_motion_ddot": 0,
        "tle_line1": "1 37432U 99025EHA 25336.31779075  .00006037  00000+0  11757-2 0  9990",
        "tle_line2": "2 37432  98.1849 349.8265 0182766 320.3330  38.4615 14.53279380 82257"
      },
      "geometry": {
        "type": "Point",
        "coordinates": [
          68.05692469782059,
          -81.51773117373145
        ]
      }
    },
    {
      "type": "Feature",
      "properties": {
        "norad_id": 37435,
        "name": "FENGYUN 1C DEB",
        "group": "fengyun-1c-debris",
        "lat": -59.57953880903859,
        "lon": -178.77067167121535,
        "alt_km": 851.1889119405505,
        "timestamp": "2025-12-05T19:30:25.854736+00:00",
        "meta_object_name": "FENGYUN 1C DEB",
        "meta_object_id": "1999-025EHD",
        "meta_epoch": "2025-11-29T08:44:14.359776",
        "meta_mean_motion": 14.22271668,
        "meta_eccentricity": 0.00410088,
        "meta_inclination": 98.6499,
        "meta_ra_of_asc_node": 9.9283,
        "meta_arg_of_pericenter": 53.3524,
        "meta_mean_anomaly": 307.1414,
        "meta_ephemeris_type": 0,
        "meta_classification_type": "U",
        "meta_norad_cat_id": 37435,
        "meta_element_set_no": 999,
        "meta_rev_at_epoch": 88749,
        "meta_bstar": 0.00099361212,
        "meta_mean_motion_dot": 2.183e-05,
        "meta_mean_motion_ddot": 0,
        "tle_line1": "1 37435U 99025EHD 25333.36405509  .00002183  00000+0  99361-3 0  9999",
        "tle_line2": "2 37435  98.6499   9.9283 0041008  53.3524 307.1414 14.22271668887490"
      },
      "geometry": {
        "type": "Point",
        "coordinates": [
          -178.77067167121535,
          -59.57953880903859
        ]
      }
    },
    {
      "type": "Feature",
      "properties": {
        "norad_id": 37436,
        "name": "FENGYUN 1C DEB",
        "group": "fengyun-1c-debris",
        "lat": 5.340570446559888,
        "lon": 33.54959781265543,
        "alt_km": 915.060067984854,
        "timestamp": "2025-12-05T19:30:25.854747+00:00",
        "meta_object_name": "FENGYUN 1C DEB",
        "meta_object_id": "1999-025EHE",
        "meta_epoch": "2025-12-04T09:19:50.397600",
        "meta_mean_motion": 14.06323245,
        "meta_eccentricity": 0.0059476,
        "meta_inclination": 98.9377,
        "meta_ra_of_asc_node": 32.9868,
        "meta_arg_of_pericenter": 171.2405,
        "meta_mean_anomaly": 188.9815,
        "meta_ephemeris_type": 0,
        "meta_classification_type": "U",
        "meta_norad_cat_id": 37436,
        "meta_element_set_no": 999,
        "meta_rev_at_epoch": 63881,
        "meta_bstar": 0.0010409,
        "meta_mean_motion_dot": 1.7e-05,
        "meta_mean_motion_ddot": 0,
        "tle_line1": "1 37436U 99025EHE 25338.38877775  .00001700  00000+0  10409-2 0  9994",
        "tle_line2": "2 37436  98.9377  32.9868 0059476 171.2405 188.9815 14.06323245638811"
      },
      "geometry": {
        "type": "Point",
        "coordinates": [
          33.54959781265543,
          5.340570446559888
        ]
      }
    }
  ]
}